     2.100          NAVIGATION                              RINEX VERSION / TYPE
fic2rin                                 10/30/2009 01:13:02 PGM / RUN BY / DATE
                                                            END OF HEADER
30 09 10 29  1 59 44.0  .188707839698D-03  .306954461848D-11  .000000000000D+00
     .000000000000D+00 -.293125000000D+02  .485591655413D-08  .257482742451D+01
    -.147707760334D-05  .119349536253D-01  .403821468353D-05  .515365298653D+04
     .352784000000D+06  .132247805595D-06  .990664661000D+00  .186264514923D-08
     .953422331833D+00  .293531250000D+03  .146618174417D+01 -.821427072878D-08
    -.814319633967D-10  .100000000000D+01  .155500000000D+04  .000000000000D+00
     .240000000000D+01  .000000000000D+00 -.791624188423D-08  .000000000000D+00
     .347736000000D+06  .400000000000D+01
 3 09 10 29  1 59 44.0  .467029865831D-03  .522959453519D-11  .000000000000D+00
     .500000000000D+02 -.510625000000D+02  .527771983822D-08  .189433946730D+00
    -.258721411228D-05  .126218546648D-01  .894255936146D-05  .515366524506D+04
     .352784000000D+06 -.126659870148D-06  .196476716853D+01  .230967998505D-06
     .926399121819D+00  .191625000000D+03  .959853818564D+00 -.856321383509D-08
    -.205365697163D-09  .100000000000D+01  .155500000000D+04  .000000000000D+00
     .240000000000D+01  .000000000000D+00 -.465661287308D-08  .500000000000D+02
     .350196000000D+06  .400000000000D+01
 2 09 10 29  1 59 44.0  .185701996088D-03  .397903932026D-11  .000000000000D+00
     .210000000000D+02  .592187500000D+02  .514985736937D-08  .445538815211D+00
     .312738120556D-05  .914580037352D-02  .831671059132D-05  .515372902107D+04
     .352784000000D+06  .186264514923D-06  .311417583376D+01 -.316649675369D-07
     .941087757065D+00  .209250000000D+03  .290858796524D+01 -.844785188694D-08
     .354300472323D-09  .100000000000D+01  .155500000000D+04  .000000000000D+00
     .240000000000D+01  .000000000000D+00 -.172294676304D-07  .210000000000D+02
     .351486000000D+06  .400000000000D+01
 2 09 10 29  3 59 44.0  .185730401427D-03  .397903932026D-11  .000000000000D+00
     .220000000000D+02  .659687500000D+02  .497056418681D-08  .149559606014D+01
     .333786010742D-05  .914624263532D-02  .834278762341D-05  .515373085022D+04
     .359984000000D+06  .149011611938D-07  .311411678893D+01  .176951289177D-06
     .941090481019D+00  .208000000000D+03  .290868069523D+01 -.824677208259D-08
     .204651381694D-09  .100000000000D+01  .155500000000D+04  .000000000000D+00
     .240000000000D+01  .000000000000D+00 -.172294676304D-07  .220000000000D+02
     .352806000000D+06  .400000000000D+01
 3 09 10 29  3 59 44.0  .467067584395D-03  .522959453519D-11  .000000000000D+00
     .530000000000D+02 -.620000000000D+02  .519735934802D-08  .123944449239D+01
    -.316835939884D-05  .126237714430D-01  .997260212898D-05  .515367086983D+04
     .359984000000D+06 -.191852450371D-06  .196470637990D+01 -.111758708954D-07
     .926396864536D+00  .173031250000D+03  .960032878274D+00 -.854178437103D-08
    -.367158150754D-09  .100000000000D+01  .155500000000D+04  .000000000000D+00
     .240000000000D+01  .000000000000D+00 -.465661287308D-08  .530000000000D+02
     .352806000000D+06  .400000000000D+01
27 09 10 29  3 59 44.0  .952784903347D-04  .318323145621D-11  .000000000000D+00
     .400000000000D+01  .330000000000D+02  .411945730622D-08  .216255647093D+01
     .148452818394D-05  .214663189836D-01  .780448317528D-05  .515372503281D+04
     .359984000000D+06  .312924385071D-06 -.689772940269D-01 -.119209289551D-06
     .976494801374D+00  .227156250000D+03 -.152814964324D+01 -.759745932182D-08
     .114647632677D-09  .100000000000D+01  .155500000000D+04  .000000000000D+00
     .240000000000D+01  .000000000000D+00 -.419095158577D-08  .400000000000D+01
     .352806000000D+06  .400000000000D+01
30 09 10 29  3 59 44.0  .188730191439D-03  .306954461848D-11  .000000000000D+00
     .290000000000D+02 -.282187500000D+02  .487591738724D-08 -.265816039656D+01
    -.130198895931D-05  .119339823723D-01  .457651913166D-05  .515365478706D+04
     .359984000000D+06  .113621354103D-06  .990605452316D+00  .428408384323D-07
     .953421781776D+00  .286531250000D+03  .146617994917D+01 -.820819904729D-08
    -.603596570791D-10  .100000000000D+01  .155500000000D+04  .000000000000D+00
     .240000000000D+01  .000000000000D+00 -.791624188423D-08  .290000000000D+02
     .352806000000D+06  .400000000000D+01
 1 09 10 29  4  0  0.0 -.618118792772D-04 -.170530256582D-11  .000000000000D+00
     .200000000000D+02 -.305000000000D+02  .597346310443D-08 -.227014870481D+01
    -.143051147461D-05  .380329415202D-02  .494718551636D-05  .515368676758D+04
     .360000000000D+06 -.745058059692D-08  .102775436977D+01 -.186264514923D-07
     .962141962880D+00  .286000000000D+03  .981062799649D+00 -.824712924032D-08
    -.106433004790D-09  .100000000000D+01  .155500000000D+04  .000000000000D+00
     .240000000000D+01  .630000000000D+02 -.190921127796D-07  .200000000000D+02
     .352806000000D+06  .400000000000D+01
 4 09 10 29  4  0  0.0 -.333112664521D-03 -.179625203600D-10  .000000000000D+00
     .115000000000D+03  .634062500000D+02  .496234955892D-08 -.193481911861D+01
     .294484198093D-05  .896741775796D-02  .807270407677D-05  .515356563950D+04
     .360000000000D+06  .409781932831D-07  .313227857163D+01 -.931322574615D-07
     .940273420791D+00  .209937500000D+03  .546587183916D+00 -.821569935971D-08
     .418946022212D-09  .100000000000D+01  .155500000000D+04  .000000000000D+00
     .240000000000D+01  .000000000000D+00 -.605359673500D-08  .115000000000D+03
     .352806000000D+06  .400000000000D+01
 5 09 10 29  4  0  0.0 -.552171841264D-04  .784439180279D-11  .000000000000D+00
     .500000000000D+02  .250000000000D+00  .492234789269D-08  .289383684438D+01
     .121071934700D-06  .158574432135D-02  .463053584099D-05  .515358168411D+04
     .360000000000D+06 -.540167093277D-07 -.211105234505D+01 -.149011611938D-07
     .960997580584D+00  .291156250000D+03  .224430731755D+00 -.831856078716D-08
    -.385730352932D-10  .100000000000D+01  .155500000000D+04  .000000000000D+00
     .340000000000D+01  .000000000000D+00 -.931322574615D-08  .500000000000D+02
     .352806000000D+06  .400000000000D+01
 6 09 10 29  4  0  0.0  .257376581430D-03  .318323145621D-11  .000000000000D+00
     .680000000000D+02 -.554375000000D+02  .488984653888D-08 -.272806172816D+01
    -.282004475594D-05  .576811691280D-02  .999681651592D-05  .515370578003D+04
     .360000000000D+06  .782310962677D-07  .203359368398D+01  .186264514923D-07
     .933866281405D+00  .169031250000D+03 -.122196358687D+01 -.815069665209D-08
    -.218580533328D-09  .100000000000D+01  .155500000000D+04  .000000000000D+00
     .240000000000D+01  .000000000000D+00 -.512227416039D-08  .680000000000D+02
     .352806000000D+06  .400000000000D+01
 7 09 10 29  4  0  0.0  .872602686286D-05 -.682121026330D-12  .000000000000D+00
     .740000000000D+02  .337812500000D+02  .430767943214D-08 -.217987982017D+00
     .160187482834D-05  .323857751209D-02  .818260014057D-05  .515364608765D+04
     .360000000000D+06  .279396772385D-07 -.117309616016D-01 -.204890966415D-07
     .969593968098D+00  .227968750000D+03  .300430625483D+01 -.800426198107D-08
     .192508018732D-09  .100000000000D+01  .155500000000D+04  .000000000000D+00
     .240000000000D+01  .000000000000D+00 -.107102096081D-07  .740000000000D+02
     .352806000000D+06  .400000000000D+01
 8 09 10 29  4  0  0.0 -.528106465936D-05  .964064383879D-10  .000000000000D+00
     .640000000000D+02  .327812500000D+02  .385408910971D-08 -.850450372146D+00
     .158697366714D-05  .110183964716D-01  .789202749729D-05  .515361376190D+04
     .360000000000D+06  .596046447754D-07  .517848774137D-01 -.178813934326D-06
     .990851218165D+00  .243156250000D+03  .304778136549D+01 -.779675333750D-08
     .301083969927D-09  .100000000000D+01  .155500000000D+04  .000000000000D+00
     .240000000000D+01  .000000000000D+00 -.372529029846D-08  .640000000000D+02
     .352806000000D+06  .400000000000D+01
 9 09 10 29  4  0  0.0  .855368562043D-04  .204636307899D-11  .000000000000D+00
     .850000000000D+02  .456875000000D+02  .424910556373D-08 -.107100862808D+01
     .255741178989D-05  .206178114749D-01  .836886465549D-05  .515362755585D+04
     .360000000000D+06 -.247731804848D-06 -.446112040643D-01  .366941094398D-06
     .978454094872D+00  .231593750000D+03  .151857369894D+01 -.821498504424D-08
     .243224416988D-09  .100000000000D+01  .155500000000D+04  .000000000000D+00
     .485000000000D+01  .000000000000D+00 -.558793544769D-08  .850000000000D+02
     .352806000000D+06  .400000000000D+01
10 09 10 29  4  0  0.0 -.270311720669D-04 -.909494701773D-12  .000000000000D+00
     .790000000000D+02 -.356250000000D+01  .496484966306D-08  .263849603753D+01
    -.180676579475D-06  .867246929556D-02  .461935997009D-05  .515339015770D+04
     .360000000000D+06 -.102445483208D-06 -.208410488786D+01 -.128522515297D-06
     .956054712476D+00  .289656250000D+03  .618022186168D+00 -.826498712703D-08
    -.571452374714D-10  .100000000000D+01  .155500000000D+04  .000000000000D+00
     .240000000000D+01  .000000000000D+00 -.279396772385D-08  .790000000000D+02
     .352806000000D+06  .400000000000D+01
11 09 10 29  4  0  0.0 -.265305861831D-04 -.181898940355D-11  .000000000000D+00
     .780000000000D+02  .476562500000D+02  .615418491793D-08 -.336901661375D+00
     .261701643467D-05  .101071046665D-01  .916793942451D-05  .515370686150D+04
     .360000000000D+06  .540167093277D-07  .290631663571D+01  .113621354103D-06
     .889352367244D+00  .165218750000D+03  .748587022020D+00 -.895858744684D-08
     .248581783000D-09  .100000000000D+01  .155500000000D+04  .000000000000D+00
     .340000000000D+01  .000000000000D+00 -.116415321827D-07  .780000000000D+02
     .352806000000D+06  .400000000000D+01
